NORAD_CAT_ID,OBJECT_NAME,OBJECT_TYPE,EPOCH,MEAN_MOTION,ECCENTRICITY,INCLINATION,RA_OF_ASC_NODE,ARG_OF_PERICENTER,MEAN_ANOMALY,BSTAR,MEAN_MOTION_DOT,MEAN_MOTION_DDOT,TLE_LINE0,TLE_LINE1,TLE_LINE2,SEMIMAJOR_AXIS,PERIOD,APOGEE,PERIGEE,DECAYED
54194.0,STARLINK-5271,PAYLOAD,2023-09-07 01:57:15,15.08843759,0.0001286,53.2171,139.9195,92.7749,267.339,3.639e-05,2.91e-06,0.0,0 STARLINK-5271,1 54194U 22141AP  23250.08143250  .00000291  00000-0  36390-4 0  9995,2 54194  53.2171 139.9195 0001286  92.7749 267.3390 15.08843759 48154,6917.869,95.437,540.624,538.844,0.0
54194.0,STARLINK-5271,PAYLOAD,2023-09-07 03:32:38,15.08843978,0.0001289,53.2171,139.622,93.1223,266.9916,3.5039e-05,2.7e-06,0.0,0 STARLINK-5271,1 54194U 22141AP  23250.14767213  .00000270  00000-0  35039-4 0  9999,2 54194  53.2171 139.6220 0001289  93.1223 266.9916 15.08843978 47932,6917.868,95.437,540.625,538.842,0.0
54194.0,STARLINK-5271,PAYLOAD,2023-09-08 01:48:02,15.08872131,0.0001234,53.2176,135.458,80.5958,279.5173,-0.00043338,-7.185e-05,0.0,0 STARLINK-5271,1 54194U 22141AP  23251.07503198 -.00007185  00000-0 -43338-3 0  9996,2 54194  53.2176 135.4580 0001234  80.5958 279.5173 15.08872131 48079,6917.782,95.436,540.501,538.794,0.0
54194.0,STARLINK-5271,PAYLOAD,2023-09-08 16:06:31,15.08836447,0.0001348,53.2175,132.7816,82.9,277.2145,8.9645e-05,1.139e-05,0.0,0 STARLINK-5271,1 54194U 22141AP  23251.67119576  .00001139  00000-0  89645-4 0  9998,2 54194  53.2175 132.7816 0001348  82.9000 277.2145 15.08836447 48399,6917.891,95.438,540.689,538.824,0.0
54194.0,STARLINK-5271,PAYLOAD,2023-09-08 20:52:40,15.08853142,0.0001477,53.2153,131.8925,75.6684,284.4472,-3.2682e-07,-2.93e-06,0.0,0 STARLINK-5271,1 54194U 22141AP  23251.86991067 -.00000293  00000-0 -32682-6 0  9995,2 54194  53.2153 131.8925 0001477  75.6684 284.4472 15.08853142 48198,6917.84,95.437,540.727,538.683,0.0
54194.0,STARLINK-5271,PAYLOAD,2023-09-09 01:38:48,15.08853699,0.0001331,53.2176,130.9969,87.5288,272.5857,0.00021883,3.198e-05,0.0,0 STARLINK-5271,1 54194U 22141AP  23252.06862086  .00003198  00000-0  21883-3 0  9999,2 54194  53.2176 130.9969 0001331  87.5288 272.5857 15.08853699 48453,6917.839,95.437,540.624,538.783,0.0
54194.0,STARLINK-5271,PAYLOAD,2023-09-09 09:35:45,15.08842458,0.0001377,53.2173,129.5106,90.2763,269.8387,0.00011197,1.495e-05,0.0,0 STARLINK-5271,1 54194U 22141AP  23252.39982997  .00001495  00000-0  11197-3 0  9994,2 54194  53.2173 129.5106 0001377  90.2763 269.8387 15.08842458 48500,6917.873,95.437,540.69,538.785,0.0
54194.0,STARLINK-5271,PAYLOAD,2023-09-09 19:08:05,15.08830739,0.0001541,53.2169,127.7266,97.0129,263.1038,-1.9594e-05,-6e-06,0.0,0 STARLINK-5271,1 54194U 22141AP  23252.79728412 -.00000600  00000-0 -19594-4 0  9997,2 54194  53.2169 127.7266 0001541  97.0129 263.1038 15.08830739 48561,6917.909,95.438,540.84,538.708,0.0
54194.0,STARLINK-5271,PAYLOAD,2023-09-10 01:29:38,15.08829579,0.0001497,53.2173,126.5376,92.81,267.3064,-3.1047e-05,-7.82e-06,0.0,0 STARLINK-5271,1 54194U 22141AP  23253.06224672 -.00000782  00000-0 -31047-4 0  9995,2 54194  53.2173 126.5376 0001497  92.8100 267.3064 15.08829579 48371,6917.912,95.438,540.813,538.742,0.0
54194.0,STARLINK-5271,PAYLOAD,2023-09-10 18:58:51,15.08848678,0.0001426,53.2172,123.2658,96.9773,263.1381,-2.307e-05,-6.55e-06,0.0,0 STARLINK-5271,1 54194U 22141AP  23253.79087586 -.00000655  00000-0 -23070-4 0  9992,2 54194  53.2172 123.2658 0001426  96.9773 263.1381 15.08848678 48715,6917.854,95.437,540.705,538.732,0.0
54194.0,STARLINK-5271,PAYLOAD,2023-09-11 01:20:23,15.08853479,0.0001395,53.2167,122.0773,88.7058,271.4094,5.1907e-05,5.39e-06,0.0,0 STARLINK-5271,1 54194U 22141AP  23254.05583158  .00000539  00000-0  51907-4 0  9997,2 54194  53.2167 122.0773 0001395  88.7058 271.4094 15.08853479 48521,6917.839,95.437,540.669,538.739,0.0
54194.0,STARLINK-5271,PAYLOAD,2023-09-11 23:35:48,15.08839075,0.0001401,53.2171,117.9173,93.2198,266.8955,0.00017042,2.425e-05,0.0,0 STARLINK-5271,1 54194U 22141AP  23254.98320066  .00002425  00000-0  17042-3 0  9993,2 54194  53.2171 117.9173 0001401  93.2198 266.8955 15.08839075 48897,6917.883,95.438,540.717,538.779,0.0
54194.0,STARLINK-5271,PAYLOAD,2023-09-12 20:15:49,15.08844581,0.0001352,53.2168,114.0502,89.8884,270.2263,3.8497e-05,3.25e-06,0.0,0 STARLINK-5271,1 54194U 22141AP  23255.84432154  .00000325  00000-0  38497-4 0  9996,2 54194  53.2168 114.0502 0001352  89.8884 270.2263 15.08844581 48793,6917.866,95.437,540.667,538.796,0.0
54194.0,STARLINK-5271,PAYLOAD,2023-09-12 21:51:12,15.08845882,0.0001355,53.217,113.7535,93.134,266.9807,4.9233e-05,4.96e-06,0.0,0 STARLINK-5271,1 54194U 22141AP  23255.91056023  .00000496  00000-0  49233-4 0  9990,2 54194  53.2170 113.7535 0001355  93.1340 266.9807 15.08845882 48809,6917.862,95.437,540.665,538.79,0.0
54194.0,STARLINK-5271,PAYLOAD,2023-09-13 18:31:12,15.08850762,0.0001377,53.2171,109.8871,101.6123,258.5024,0.00012731,1.739e-05,0.0,0 STARLINK-5271,1 54194U 22141AP  23256.77167302  .00001739  00000-0  12731-3 0  9991,2 54194  53.2171 109.8871 0001377 101.6123 258.5024 15.08850762 49168,6917.847,95.437,540.665,538.76,0.0
54194.0,STARLINK-5271,PAYLOAD,2023-09-13 21:41:58,15.08849903,0.0001279,53.2157,109.2922,83.8494,276.2643,0.00020984,3.054e-05,0.0,0 STARLINK-5271,1 54194U 22141AP  23256.90415293  .00003054  00000-0  20984-3 0  9992,2 54194  53.2157 109.2922 0001279  83.8494 276.2643 15.08849903 48951,6917.85,95.437,540.6,538.83,0.0
54194.0,STARLINK-5271,PAYLOAD,2023-09-14 13:35:50,15.08835163,0.0001558,53.2147,106.3167,74.7061,285.4103,-6.0507e-05,-1.251e-05,0.0,0 STARLINK-5271,1 54194U 22141AP  23257.56656244 -.00001251  00000-0 -60507-4 0  9993,2 54194  53.2147 106.3167 0001558  74.7061 285.4103 15.08835163 49056,6917.895,95.438,540.838,538.682,0.0
54194.0,STARLINK-5271,PAYLOAD,2023-09-14 18:22:00,15.08837299,0.0001357,53.2146,105.4216,102.0187,258.0958,-0.00010073,-1.891e-05,0.0,0 STARLINK-5271,1 54194U 22141AP  23257.76527947 -.00001891  00000-0 -10073-3 0  9994,2 54194  53.2146 105.4216 0001357 102.0187 258.0958 15.08837299 49316,6917.889,95.438,540.692,538.815,0.0
54194.0,STARLINK-5271,PAYLOAD,2023-09-14 21:32:46,15.08833324,0.0001205,53.2156,104.8305,89.4051,270.7079,-7.027e-05,-1.406e-05,0.0,0 STARLINK-5271,1 54194U 22141AP  23257.89776351 -.00001406  00000-0 -70270-4 0  9991,2 54194  53.2156 104.8305 0001205  89.4051 270.7079 15.08833324 49106,6917.901,95.438,540.599,538.932,0.0
54194.0,STARLINK-5271,PAYLOAD,2023-09-15 13:26:38,15.08839333,0.0001173,53.2159,101.8556,102.827,257.2853,9.0523e-06,-1.44e-06,0.0,0 STARLINK-5271,1 54194U 22141AP  23258.56016253 -.00000144  00000-0  90523-5 0  9995,2 54194  53.2159 101.8556 0001173 102.8270 257.2853 15.08839333 49208,6917.882,95.438,540.559,538.936,0.0
54194.0,STARLINK-5271,PAYLOAD,2023-09-15 22:58:56,15.08849187,0.0001147,53.2152,100.0719,94.0206,266.0917,0.00035748,5.407e-05,0.0,0 STARLINK-5271,1 54194U 22141AP  23258.95759982  .00005407  00000-0  35748-3 0  9993,2 54194  53.2152 100.0719 0001147  94.0206 266.0917 15.08849187 49493,6917.852,95.437,540.511,538.924,0.0
54194.0,STARLINK-5271,PAYLOAD,2023-09-16 13:17:25,15.08842977,0.000122,53.2149,97.3948,93.6288,266.4844,0.00030192,4.521e-05,0.0,0 STARLINK-5271,1 54194U 22141AP  23259.55376345  .00004521  00000-0  30192-3 0  9992,2 54194  53.2149  97.3948 0001220  93.6288 266.4844 15.08842977 49356,6917.871,95.437,540.58,538.892,0.0
54194.0,STARLINK-5271,PAYLOAD,2023-09-16 18:03:33,15.08880025,0.0001092,53.2152,96.5032,86.6269,273.4848,0.00096922,0.00015188,0.0,0 STARLINK-5271,1 54194U 22141AP  23259.75246960  .00015188  00000-0  96922-3 0  9997,2 54194  53.2152  96.5032 0001092  86.6269 273.4848 15.08880025 49610,6917.758,95.435,540.378,538.868,0.0
54194.0,STARLINK-5271,PAYLOAD,2023-09-17 13:08:10,15.08851045,5.97e-05,53.215,92.9338,76.1465,283.9593,-1.8808e-05,-5.87e-06,0.0,0 STARLINK-5271,1 54194U 22141AP  23260.54734706 -.00000587  00000-0 -18808-4 0  9993,2 54194  53.2150  92.9338 0000597  76.1465 283.9593 15.08851045 49509,6917.847,95.437,540.125,539.299,0.0
54194.0,STARLINK-5271,PAYLOAD,2023-09-17 19:29:43,15.08846548,8.83e-05,53.2156,91.7457,87.3722,272.7371,-1.4099e-05,-5.12e-06,0.0,0 STARLINK-5271,1 54194U 22141AP  23260.81230938 -.00000512  00000-0 -14099-4 0  9997,2 54194  53.2156  91.7457 0000883  87.3722 272.7371 15.08846548 49773,6917.86,95.437,540.336,539.115,0.0
54194.0,STARLINK-5271,PAYLOAD,2023-09-18 08:12:49,15.08832029,9.44e-05,53.2153,89.3657,81.917,278.1929,-0.00023351,-4.001e-05,0.0,0 STARLINK-5271,1 54194U 22141AP  23261.34223515 -.00004001  00000-0 -23351-3 0  9996,2 54194  53.2153  89.3657 0000944  81.9170 278.1929 15.08832029 49857,6917.905,95.438,540.423,539.117,0.0
54194.0,STARLINK-5271,PAYLOAD,2023-09-18 20:55:54,15.08849647,9.57e-05,53.217,86.989,81.5842,278.5258,-0.00025789,-4.391e-05,0.0,0 STARLINK-5271,1 54194U 22141AP  23261.87215796 -.00004391  00000-0 -25789-3 0  9995,2 54194  53.2170  86.9890 0000957  81.5842 278.5258 15.08849647 49701,6917.851,95.437,540.378,539.054,0.0
54194.0,STARLINK-5271,PAYLOAD,2023-09-18 22:31:17,15.08849089,9.9e-05,53.217,86.6916,83.0827,277.0278,-0.00025424,-4.333e-05,0.0,0 STARLINK-5271,1 54194U 22141AP  23261.93839804 -.00004333  00000-0 -25424-3 0  9996,2 54194  53.2170  86.6916 0000990  83.0827 277.0278 15.08849089 49946,6917.853,95.437,540.402,539.033,0.0
54194.0,STARLINK-5271,PAYLOAD,2023-09-20 11:05:10,15.08832937,0.0001072,53.216,79.8507,85.2653,274.8461,0.00011847,1.598e-05,0.0,0 STARLINK-5271,1 54194U 22141AP  23263.46192623  .00001598  00000-0  11847-3 0  9999,2 54194  53.2160  79.8507 0001072  85.2653 274.8461 15.08832937 49941,6917.902,95.438,540.509,539.025,0.0
54194.0,STARLINK-5271,PAYLOAD,2023-09-20 19:02:06,15.08832234,0.0001005,53.2163,78.3635,86.608,273.5028,1.5852e-05,-3.5e-07,0.0,0 STARLINK-5271,1 54194U 22141AP  23263.79312781 -.00000035  00000-0  15852-4 0  9991,2 54194  53.2163  78.3635 0001005  86.6080 273.5028 15.08832234 50223,6917.904,95.438,540.464,539.074,0.0
